[{"OBJECT_NAME":"ORBCOMM FM06","OBJECT_ID":"1997-084G","EPOCH":"2026-04-25T21:52:42.337632","MEAN_MOTION":14.47428642,"ECCENTRICITY":5.988e-5,"INCLINATION":45.0143,"RA_OF_ASC_NODE":304.3437,"ARG_OF_PERICENTER":52.9066,"MEAN_ANOMALY":88.2481,"EPHEMERIS_TYPE":0,"CLASSIFICATION_TYPE":"U","NORAD_CAT_ID":25118,"ELEMENT_SET_NO":999,"REV_AT_EPOCH":48681,"BSTAR":0.00040762762,"MEAN_MOTION_DOT":1.365e-5,"MEAN_MOTION_DDOT":0},{"OBJECT_NAME":"ORBCOMM FM04","OBJECT_ID":"1998-007C","EPOCH":"2026-04-25T18:55:42.370176","MEAN_MOTION":14.35629931,"ECCENTRICITY":0.00392326,"INCLINATION":107.9613,"RA_OF_ASC_NODE":61.5918,"ARG_OF_PERICENTER":56.4966,"MEAN_ANOMALY":303.9914,"EPHEMERIS_TYPE":0,"CLASSIFICATION_TYPE":"U","NORAD_CAT_ID":25159,"ELEMENT_SET_NO":999,"REV_AT_EPOCH":46907,"BSTAR":0.00034186403,"MEAN_MOTION_DOT":8.63e-6,"MEAN_MOTION_DDOT":0},{"OBJECT_NAME":"ORBCOMM FM19","OBJECT_ID":"1998-046C","EPOCH":"2026-04-25T18:31:36.897312","MEAN_MOTION":14.39387743,"ECCENTRICITY":0.00024501,"INCLINATION":44.9929,"RA_OF_ASC_NODE":132.6881,"ARG_OF_PERICENTER":359.5684,"MEAN_ANOMALY":169.8896,"EPHEMERIS_TYPE":0,"CLASSIFICATION_TYPE":"U","NORAD_CAT_ID":25415,"ELEMENT_SET_NO":999,"REV_AT_EPOCH":44922,"BSTAR":0.00028462001,"MEAN_MOTION_DOT":7.51e-6,"MEAN_MOTION_DDOT":0},{"OBJECT_NAME":"ORBCOMM FM20","OBJECT_ID":"1998-046D","EPOCH":"2026-04-25T18:28:26.785344","MEAN_MOTION":14.37984593,"ECCENTRICITY":0.00018072,"INCLINATION":44.9926,"RA_OF_ASC_NODE":140.0481,"ARG_OF_PERICENTER":281.0381,"MEAN_ANOMALY":79.0264,"EPHEMERIS_TYPE":0,"CLASSIFICATION_TYPE":"U","NORAD_CAT_ID":25416,"ELEMENT_SET_NO":999,"REV_AT_EPOCH":44924,"BSTAR":0.00020462698,"MEAN_MOTION_DOT":4.82e-6,"MEAN_MOTION_DDOT":0},{"OBJECT_NAME":"ORBCOMM FM27","OBJECT_ID":"1998-053G","EPOCH":"2026-04-25T13:35:34.831968","MEAN_MOTION":14.39038731,"ECCENTRICITY":0.0001349,"INCLINATION":45.0048,"RA_OF_ASC_NODE":225.2639,"ARG_OF_PERICENTER":229.0645,"MEAN_ANOMALY":131.0087,"EPHEMERIS_TYPE":0,"CLASSIFICATION_TYPE":"U","NORAD_CAT_ID":25481,"ELEMENT_SET_NO":999,"REV_AT_EPOCH":44265,"BSTAR":0.000300962,"MEAN_MOTION_DOT":7.96e-6,"MEAN_MOTION_DDOT":0},{"OBJECT_NAME":"ORBCOMM FM32","OBJECT_ID":"1999-065C","EPOCH":"2026-04-25T20:58:50.780640","MEAN_MOTION":14.37053109,"ECCENTRICITY":0.00042619,"INCLINATION":45.016,"RA_OF_ASC_NODE":60.8398,"ARG_OF_PERICENTER":163.6346,"MEAN_ANOMALY":196.464,"EPHEMERIS_TYPE":0,"CLASSIFICATION_TYPE":"U","NORAD_CAT_ID":25982,"ELEMENT_SET_NO":999,"REV_AT_EPOCH":37956,"BSTAR":0.00031791222,"MEAN_MOTION_DOT":8.1e-6,"MEAN_MOTION_DDOT":0},{"OBJECT_NAME":"ORBCOMM FM109","OBJECT_ID":"2014-040A","EPOCH":"2026-04-25T20:11:24.824256","MEAN_MOTION":14.58788499,"ECCENTRICITY":0.00018178,"INCLINATION":47.0045,"RA_OF_ASC_NODE":338.9635,"ARG_OF_PERICENTER":329.6037,"MEAN_ANOMALY":30.4743,"EPHEMERIS_TYPE":0,"CLASSIFICATION_TYPE":"U","NORAD_CAT_ID":40086,"ELEMENT_SET_NO":999,"REV_AT_EPOCH":62670,"BSTAR":0.00013592369,"MEAN_MOTION_DOT":4.7e-6,"MEAN_MOTION_DDOT":0},{"OBJECT_NAME":"ORBCOMM FM114","OBJECT_ID":"2015-081A","EPOCH":"2026-04-25T15:40:54.960096","MEAN_MOTION":14.58797793,"ECCENTRICITY":0.00025475,"INCLINATION":47.0045,"RA_OF_ASC_NODE":250.3656,"ARG_OF_PERICENTER":302.583,"MEAN_ANOMALY":57.481,"EPHEMERIS_TYPE":0,"CLASSIFICATION_TYPE":"U","NORAD_CAT_ID":41179,"ELEMENT_SET_NO":999,"REV_AT_EPOCH":55008,"BSTAR":0.00012295023,"MEAN_MOTION_DOT":4.09e-6,"MEAN_MOTION_DDOT":0},{"OBJECT_NAME":"ORBCOMM FM110","OBJECT_ID":"2015-081D","EPOCH":"2026-04-25T15:24:47.563488","MEAN_MOTION":14.5881824,"ECCENTRICITY":0.00035053,"INCLINATION":47.0017,"RA_OF_ASC_NODE":249.8745,"ARG_OF_PERICENTER":201.6036,"MEAN_ANOMALY":158.4702,"EPHEMERIS_TYPE":0,"CLASSIFICATION_TYPE":"U","NORAD_CAT_ID":41182,"ELEMENT_SET_NO":999,"REV_AT_EPOCH":54995,"BSTAR":0.00014960665,"MEAN_MOTION_DOT":5.35e-6,"MEAN_MOTION_DDOT":0},{"OBJECT_NAME":"ORBCOMM FM118","OBJECT_ID":"2015-081E","EPOCH":"2026-04-25T09:40:15.274848","MEAN_MOTION":14.5881582,"ECCENTRICITY":0.0003083,"INCLINATION":47.0039,"RA_OF_ASC_NODE":251.3309,"ARG_OF_PERICENTER":165.8804,"MEAN_ANOMALY":194.2169,"EPHEMERIS_TYPE":0,"CLASSIFICATION_TYPE":"U","NORAD_CAT_ID":41183,"ELEMENT_SET_NO":999,"REV_AT_EPOCH":55002,"BSTAR":0.00016032723,"MEAN_MOTION_DOT":5.86e-6,"MEAN_MOTION_DDOT":0},{"OBJECT_NAME":"ORBCOMM FM112","OBJECT_ID":"2015-081F","EPOCH":"2026-04-25T19:36:12.018528","MEAN_MOTION":14.58813538,"ECCENTRICITY":0.00027319,"INCLINATION":46.9978,"RA_OF_ASC_NODE":157.8533,"ARG_OF_PERICENTER":301.4901,"MEAN_ANOMALY":58.5717,"EPHEMERIS_TYPE":0,"CLASSIFICATION_TYPE":"U","NORAD_CAT_ID":41184,"ELEMENT_SET_NO":999,"REV_AT_EPOCH":55130,"BSTAR":0.00013711833,"MEAN_MOTION_DOT":4.76e-6,"MEAN_MOTION_DDOT":0},{"OBJECT_NAME":"ORBCOMM FM113","OBJECT_ID":"2015-081G","EPOCH":"2026-04-25T19:03:44.655840","MEAN_MOTION":14.58798905,"ECCENTRICITY":0.00022172,"INCLINATION":46.9993,"RA_OF_ASC_NODE":158.3373,"ARG_OF_PERICENTER":304.2106,"MEAN_ANOMALY":55.857,"EPHEMERIS_TYPE":0,"CLASSIFICATION_TYPE":"U","NORAD_CAT_ID":41185,"ELEMENT_SET_NO":999,"REV_AT_EPOCH":55128,"BSTAR":9.4754047e-5,"MEAN_MOTION_DOT":2.76e-6,"MEAN_MOTION_DDOT":0},{"OBJECT_NAME":"ORBCOMM FM108","OBJECT_ID":"2015-081J","EPOCH":"2026-04-25T21:27:03.036096","MEAN_MOTION":14.58790323,"ECCENTRICITY":0.00033156,"INCLINATION":47.0051,"RA_OF_ASC_NODE":69.4209,"ARG_OF_PERICENTER":310.729,"MEAN_ANOMALY":49.3308,"EPHEMERIS_TYPE":0,"CLASSIFICATION_TYPE":"U","NORAD_CAT_ID":41187,"ELEMENT_SET_NO":999,"REV_AT_EPOCH":55244,"BSTAR":0.00018208102,"MEAN_MOTION_DOT":6.88e-6,"MEAN_MOTION_DDOT":0},{"OBJECT_NAME":"ORBCOMM FM117","OBJECT_ID":"2015-081K","EPOCH":"2026-04-24T19:57:52.695360","MEAN_MOTION":14.5880864,"ECCENTRICITY":0.00038833,"INCLINATION":47.0011,"RA_OF_ASC_NODE":73.0914,"ARG_OF_PERICENTER":313.3219,"MEAN_ANOMALY":46.7342,"EPHEMERIS_TYPE":0,"CLASSIFICATION_TYPE":"U","NORAD_CAT_ID":41188,"ELEMENT_SET_NO":999,"REV_AT_EPOCH":55233,"BSTAR":0.00011119171,"MEAN_MOTION_DOT":3.54e-6,"MEAN_MOTION_DDOT":0},{"OBJECT_NAME":"ORBCOMM FM116","OBJECT_ID":"2015-081L","EPOCH":"2026-04-25T13:35:14.642016","MEAN_MOTION":14.58809658,"ECCENTRICITY":0.00020867,"INCLINATION":47.0009,"RA_OF_ASC_NODE":159.4119,"ARG_OF_PERICENTER":216.132,"MEAN_ANOMALY":143.9425,"EPHEMERIS_TYPE":0,"CLASSIFICATION_TYPE":"U","NORAD_CAT_ID":41189,"ELEMENT_SET_NO":999,"REV_AT_EPOCH":55125,"BSTAR":0.00012091282,"MEAN_MOTION_DOT":4.0e-6,"MEAN_MOTION_DDOT":0}]
